{
  "type": "FeatureCollection",
  "features": [
    {
      "type": "Feature",
      "properties": {
        "norad_id": 43260,
        "name": "GAOFEN-1 03",
        "group": "resource",
        "lat": 66.47106905140542,
        "lon": -115.34766275270417,
        "alt_km": 635.3320157638063,
        "timestamp": "2025-12-13T22:39:29.365728+00:00",
        "meta_object_name": "GAOFEN-1 03",
        "meta_object_id": "2018-031B",
        "meta_epoch": "2025-12-13T07:30:48.396960",
        "meta_mean_motion": 14.76439285,
        "meta_eccentricity": 0.00019453,
        "meta_inclination": 98.0798,
        "meta_ra_of_asc_node": 44.9794,
        "meta_arg_of_pericenter": 319.5421,
        "meta_mean_anomaly": 40.5643,
        "meta_ephemeris_type": 0,
        "meta_classification_type": "U",
        "meta_norad_cat_id": 43260,
        "meta_element_set_no": 999,
        "meta_rev_at_epoch": 41526,
        "meta_bstar": 0.00023178748,
        "meta_mean_motion_dot": 1.56e-05,
        "meta_mean_motion_ddot": 0,
        "tle_line1": "1 43260U 18031B   25347.31306015  .00001560  00000+0  23179-3 0  9994",
        "tle_line2": "2 43260  98.0798  44.9794 0001945 319.5421  40.5643 14.76439285415268"
      },
      "geometry": {
        "type": "Point",
        "coordinates": [
          -115.34766275270417,
          66.47106905140542
        ]
      }
    },
    {
      "type": "Feature",
      "properties": {
        "norad_id": 43262,
        "name": "GAOFEN-1 04",
        "group": "resource",
        "lat": -60.58543315855442,
        "lon": -148.8150406807241,
        "alt_km": 648.4104566473034,
        "timestamp": "2025-12-13T22:39:29.365738+00:00",
        "meta_object_name": "GAOFEN-1 04",
        "meta_object_id": "2018-031D",
        "meta_epoch": "2025-12-13T06:55:44.011776",
        "meta_mean_motion": 14.76454179,
        "meta_eccentricity": 0.00010379,
        "meta_inclination": 98.0805,
        "meta_ra_of_asc_node": 45.1242,
        "meta_arg_of_pericenter": 59.3381,
        "meta_mean_anomaly": 300.793,
        "meta_ephemeris_type": 0,
        "meta_classification_type": "U",
        "meta_norad_cat_id": 43262,
        "meta_element_set_no": 999,
        "meta_rev_at_epoch": 41525,
        "meta_bstar": 0.00030046954,
        "meta_mean_motion_dot": 2.039e-05,
        "meta_mean_motion_ddot": 0,
        "tle_line1": "1 43262U 18031D   25347.28870384  .00002039  00000+0  30047-3 0  9991",
        "tle_line2": "2 43262  98.0805  45.1242 0001037  59.3381 300.7930 14.76454179415254"
      },
      "geometry": {
        "type": "Point",
        "coordinates": [
          -148.8150406807241,
          -60.58543315855442
        ]
      }
    },
    {
      "type": "Feature",
      "properties": {
        "norad_id": 43437,
        "name": "SENTINEL-3B",
        "group": "resource",
        "lat": -12.955839634737329,
        "lon": -128.88974324048078,
        "alt_km": 807.1786384335674,
        "timestamp": "2025-12-13T22:39:29.365748+00:00",
        "meta_object_name": "SENTINEL-3B",
        "meta_object_id": "2018-039A",
        "meta_epoch": "2025-12-13T03:14:32.195040",
        "meta_mean_motion": 14.26734354,
        "meta_eccentricity": 0.00016258,
        "meta_inclination": 98.6266,
        "meta_ra_of_asc_node": 52.3144,
        "meta_arg_of_pericenter": 102.2573,
        "meta_mean_anomaly": 257.879,
        "meta_ephemeris_type": 0,
        "meta_classification_type": "U",
        "meta_norad_cat_id": 43437,
        "meta_element_set_no": 999,
        "meta_rev_at_epoch": 39759,
        "meta_bstar": 0.00011115744,
        "meta_mean_motion_dot": 2.25e-06,
        "meta_mean_motion_ddot": 0,
        "tle_line1": "1 43437U 18039A   25347.13509485  .00000225  00000+0  11116-3 0  9999",
        "tle_line2": "2 43437  98.6266  52.3144 0001625 102.2573 257.8790 14.26734354397593"
      },
      "geometry": {
        "type": "Point",
        "coordinates": [
          -128.88974324048078,
          -12.955839634737329
        ]
      }
    },
    {
      "type": "Feature",
      "properties": {
        "norad_id": 43461,
        "name": "GAOFEN-5 01",
        "group": "resource",
        "lat": -31.86114012695384,
        "lon": -43.77770258200123,
        "alt_km": 697.245790581841,
        "timestamp": "2025-12-13T22:39:29.365758+00:00",
        "meta_object_name": "GAOFEN-5 01",
        "meta_object_id": "2018-043A",
        "meta_epoch": "2025-12-12T22:08:25.329696",
        "meta_mean_motion": 14.60410348,
        "meta_eccentricity": 9.449e-05,
        "meta_inclination": 98.4326,
        "meta_ra_of_asc_node": 309.8929,
        "meta_arg_of_pericenter": 339.5277,
        "meta_mean_anomaly": 20.5885,
        "meta_ephemeris_type": 0,
        "meta_classification_type": "U",
        "meta_norad_cat_id": 43461,
        "meta_element_set_no": 999,
        "meta_rev_at_epoch": 40450,
        "meta_bstar": 0.00016796304,
        "meta_mean_motion_dot": 7.64e-06,
        "meta_mean_motion_ddot": 0,
        "tle_line1": "1 43461U 18043A   25346.92251539  .00000764  00000+0  16796-3 0  9998",
        "tle_line2": "2 43461  98.4326 309.8929 0000944 339.5277  20.5885 14.60410348404507"
      },
      "geometry": {
        "type": "Point",
        "coordinates": [
          -43.77770258200123,
          -31.86114012695384
        ]
      }
    },
    {
      "type": "Feature",
      "properties": {
        "norad_id": 43484,
        "name": "GAOFEN-6",
        "group": "resource",
        "lat": 32.69503141035711,
        "lon": 47.12059489204089,
        "alt_km": 629.9882506535005,
        "timestamp": "2025-12-13T22:39:29.365768+00:00",
        "meta_object_name": "GAOFEN-6",
        "meta_object_id": "2018-048A",
        "meta_epoch": "2025-12-13T07:52:18.780096",
        "meta_mean_motion": 14.76568116,
        "meta_eccentricity": 0.00131864,
        "meta_inclination": 97.8028,
        "meta_ra_of_asc_node": 51.5747,
        "meta_arg_of_pericenter": 62.1394,
        "meta_mean_anomaly": 298.115,
        "meta_ephemeris_type": 0,
        "meta_classification_type": "U",
        "meta_norad_cat_id": 43484,
        "meta_element_set_no": 999,
        "meta_rev_at_epoch": 40596,
        "meta_bstar": 0.00019637265,
        "meta_mean_motion_dot": 1.322e-05,
        "meta_mean_motion_ddot": 0,
        "tle_line1": "1 43484U 18048A   25347.32799514  .00001322  00000+0  19637-3 0  9991",
        "tle_line2": "2 43484  97.8028  51.5747 0013186  62.1394 298.1150 14.76568116405967"
      },
      "geometry": {
        "type": "Point",
        "coordinates": [
          47.12059489204089,
          32.69503141035711
        ]
      }
    },
    {
      "type": "Feature",
      "properties": {
        "norad_id": 43585,
        "name": "GAOFEN-11 01",
        "group": "resource",
        "lat": 25.34788591683118,
        "lon": -125.72000889723887,
        "alt_km": 420.77134974757973,
        "timestamp": "2025-12-13T22:39:29.365778+00:00",
        "meta_object_name": "GAOFEN-11 01",
        "meta_object_id": "2018-063A",
        "meta_epoch": "2025-12-13T08:02:33.358848",
        "meta_mean_motion": 15.49248696,
        "meta_eccentricity": 0.00042636,
        "meta_inclination": 97.1558,
        "meta_ra_of_asc_node": 50.264,
        "meta_arg_of_pericenter": 310.1542,
        "meta_mean_anomaly": 49.9336,
        "meta_ephemeris_type": 0,
        "meta_classification_type": "U",
        "meta_norad_cat_id": 43585,
        "meta_element_set_no": 999,
        "meta_rev_at_epoch": 41151,
        "meta_bstar": 0.00046892697,
        "meta_mean_motion_dot": 0.00025558,
        "meta_mean_motion_ddot": 0,
        "tle_line1": "1 43585U 18063A   25347.33510832  .00025558  00000+0  46893-3 0  9996",
        "tle_line2": "2 43585  97.1558  50.2640 0004263 310.1542  49.9336 15.49248696411510"
      },
      "geometry": {
        "type": "Point",
        "coordinates": [
          -125.72000889723887,
          25.34788591683118
        ]
      }
    },
    {
      "type": "Feature",
      "properties": {
        "norad_id": 43613,
        "name": "ICESAT-2",
        "group": "resource",
        "lat": 20.31657199308268,
        "lon": 61.80538008879467,
        "alt_km": 479.6200276303971,
        "timestamp": "2025-12-13T22:39:29.365788+00:00",
        "meta_object_name": "ICESAT-2",
        "meta_object_id": "2018-070A",
        "meta_epoch": "2025-12-13T06:14:50.425440",
        "meta_mean_motion": 15.2825875,
        "meta_eccentricity": 0.00024034,
        "meta_inclination": 92.0046,
        "meta_ra_of_asc_node": 240.8779,
        "meta_arg_of_pericenter": 140.4995,
        "meta_mean_anomaly": 219.643,
        "meta_ephemeris_type": 0,
        "meta_classification_type": "U",
        "meta_norad_cat_id": 43613,
        "meta_element_set_no": 999,
        "meta_rev_at_epoch": 40406,
        "meta_bstar": 0.00069984959,
        "meta_mean_motion_dot": 0.00019282,
        "meta_mean_motion_ddot": 0,
        "tle_line1": "1 43613U 18070A   25347.26030585  .00019282  00000+0  69985-3 0  9994",
        "tle_line2": "2 43613  92.0046 240.8779 0002403 140.4995 219.6430 15.28258750404060"
      },
      "geometry": {
        "type": "Point",
        "coordinates": [
          61.80538008879467,
          20.31657199308268
        ]
      }
    }
  ]
}